NORAD_CAT_ID,OBJECT_NAME,OBJECT_TYPE,EPOCH,MEAN_MOTION,ECCENTRICITY,INCLINATION,RA_OF_ASC_NODE,ARG_OF_PERICENTER,MEAN_ANOMALY,BSTAR,MEAN_MOTION_DOT,MEAN_MOTION_DDOT,TLE_LINE0,TLE_LINE1,TLE_LINE2,SEMIMAJOR_AXIS,PERIOD,APOGEE,PERIGEE,DECAYED
53267.0,STARLINK-4060,PAYLOAD,2023-03-12 22:54:31,15.08842517,9.71e-05,53.217,59.5985,89.5108,270.5995,0.001272,0.00020015,0.0,0 STARLINK-4060,1 53267U 22086AB  23071.95452787  .00020015  00000-0  12720-2 0  9993,2 53267  53.2170  59.5985 0000971  89.5108 270.5995 15.08842517 36100,6917.873,95.437,540.409,539.066,0.0
53267.0,STARLINK-4060,PAYLOAD,2023-03-13 08:26:49,15.08867033,0.0001779,53.2166,57.8128,89.1468,270.9728,0.0013087,0.00020617,0.0,0 STARLINK-4060,1 53267U 22086AB  23072.35196255  .00020617  00000-0  13087-2 0  9998,2 53267  53.2166  57.8128 0001779  89.1468 270.9728 15.08867033 35980,6917.798,95.436,540.893,538.432,0.0
53267.0,STARLINK-4060,PAYLOAD,2023-03-13 22:45:18,15.08860346,0.0004099,53.2153,55.1395,96.1707,263.9752,0.0011687,0.00018373,0.0,0 STARLINK-4060,1 53267U 22086AB  23072.94812566  .00018373  00000-0  11687-2 0  9993,2 53267  53.2153  55.1395 0004099  96.1707 263.9752 15.08860346 36255,6917.818,95.436,542.519,536.848,0.0
53267.0,STARLINK-4060,PAYLOAD,2023-03-14 05:06:50,15.0884667,0.000129,53.2176,53.9452,95.1752,264.9387,0.0012234,0.0001924,0.0,0 STARLINK-4060,1 53267U 22086AB  23073.21308427  .00019240  00000-0  12234-2 0  9993,2 53267  53.2176  53.9452 0001290  95.1752 264.9387 15.08846670 36113,6917.86,95.437,540.617,538.833,0.0
53267.0,STARLINK-4060,PAYLOAD,2023-03-14 08:17:36,15.0885084,0.0001255,53.217,53.3506,92.0451,268.0685,0.0009634,0.00015082,0.0,0 STARLINK-4060,1 53267U 22086AB  23073.34556334  .00015082  00000-0  96340-3 0  9990,2 53267  53.2170  53.3506 0001255  92.0451 268.0685 15.08850840 36316,6917.847,95.437,540.58,538.844,0.0
53267.0,STARLINK-4060,PAYLOAD,2023-03-14 16:14:32,15.08844131,0.0001492,53.2166,51.8634,95.2365,264.8797,0.00052378,8.059e-05,0.0,0 STARLINK-4060,1 53267U 22086AB  23073.67676474  .00008059  00000-0  52378-3 0  9993,2 53267  53.2166  51.8634 0001492  95.2365 264.8797 15.08844131 36187,6917.868,95.437,540.765,538.701,0.0
53267.0,STARLINK-4060,PAYLOAD,2023-03-15 09:43:46,15.08873409,0.0001457,53.2178,48.5938,97.3365,262.7792,0.0012353,0.00019444,0.0,0 STARLINK-4060,1 53267U 22086AB  23074.40539446  .00019444  00000-0  12353-2 0  9990,2 53267  53.2178  48.5938 0001457  97.3365 262.7792 15.08873409 36298,6917.778,95.435,540.651,538.635,0.0
53267.0,STARLINK-4060,PAYLOAD,2023-03-15 22:26:51,15.08832792,0.0001858,53.2165,46.2136,95.126,264.9944,-0.00026563,-4.512e-05,0.0,0 STARLINK-4060,1 53267U 22086AB  23074.93532341 -.00004512  00000-0 -26563-3 0  9996,2 53267  53.2165  46.2136 0001858  95.1260 264.9944 15.08832792 36556,6917.902,95.438,541.053,538.482,0.0
53267.0,STARLINK-4060,PAYLOAD,2023-03-16 04:48:24,15.08854187,0.0001295,53.2173,45.0269,107.0929,253.0205,0.00055165,8.506e-05,0.0,0 STARLINK-4060,1 53267U 22086AB  23075.20027977  .00008506  00000-0  55165-3 0  9996,2 53267  53.2173  45.0269 0001295 107.0929 253.0205 15.08854187 36415,6917.837,95.437,540.598,538.806,0.0
53267.0,STARLINK-4060,PAYLOAD,2023-03-16 07:59:10,15.08863892,0.0001339,53.217,44.432,114.1478,245.9655,0.0013878,0.00021882,0.0,0 STARLINK-4060,1 53267U 22086AB  23075.33275894  .00021882  00000-0  13878-2 0  9999,2 53267  53.2170  44.4320 0001339 114.1478 245.9655 15.08863892 36614,6917.807,95.436,540.599,538.746,0.0
53267.0,STARLINK-4060,PAYLOAD,2023-03-16 22:17:39,15.08839906,0.0001175,53.2173,41.7556,108.9012,251.2108,0.0011323,0.00017778,0.0,0 STARLINK-4060,1 53267U 22086AB  23075.92892954  .00017778  00000-0  11323-2 0  9998,2 53267  53.2173  41.7556 0001175 108.9012 251.2108 15.08839906 36523,6917.881,95.438,540.559,538.933,0.0
53267.0,STARLINK-4060,PAYLOAD,2023-03-17 14:11:31,15.0883882,0.0001051,53.2168,38.783,103.8383,256.2726,0.00076297,0.00011875,0.0,0 STARLINK-4060,1 53267U 22086AB  23076.59133323  .00011875  00000-0  76297-3 0  9994,2 53267  53.2168  38.7830 0001051 103.8383 256.2726 15.08838820 36622,6917.884,95.438,540.476,539.022,0.0
53267.0,STARLINK-4060,PAYLOAD,2023-03-17 20:33:03,15.08847276,0.0001185,53.2169,37.5946,109.3712,250.7408,0.00092078,0.00014399,0.0,0 STARLINK-4060,1 53267U 22086AB  23076.85629314  .00014399  00000-0  92078-3 0  9992,2 53267  53.2169  37.5946 0001185 109.3712 250.7408 15.08847276 36848,6917.858,95.437,540.543,538.903,0.0
53267.0,STARLINK-4060,PAYLOAD,2023-03-18 14:02:18,15.08841293,0.0001594,53.2167,34.3204,90.3334,269.7841,0.00026999,4.012e-05,0.0,0 STARLINK-4060,1 53267U 22086AB  23077.58493456  .00004012  00000-0  26999-3 0  9999,2 53267  53.2167  34.3204 0001594  90.3334 269.7841 15.08841293 36777,6917.876,95.437,540.844,538.639,0.0
53267.0,STARLINK-4060,PAYLOAD,2023-03-19 13:53:05,15.08846186,0.000141,53.2168,29.8609,102.8116,257.3034,0.00031477,4.726e-05,0.0,0 STARLINK-4060,1 53267U 22086AB  23078.57853141  .00004726  00000-0  31477-3 0  9999,2 53267  53.2168  29.8609 0001410 102.8116 257.3034 15.08846186 37101,6917.861,95.437,540.702,538.751,0.0
53267.0,STARLINK-4060,PAYLOAD,2023-03-20 05:46:56,15.08852186,0.0001335,53.2173,26.8878,111.9554,248.158,0.0020013,0.00031717,0.0,0 STARLINK-4060,1 53267U 22086AB  23079.24093358  .00031717  00000-0  20013-2 0  9993,2 53267  53.2173  26.8878 0001335 111.9554 248.1580 15.08852186 37027,6917.843,95.437,540.632,538.785,0.0
53267.0,STARLINK-4060,PAYLOAD,2023-03-20 07:22:19,15.08853153,0.00015,53.2174,26.5901,113.9242,246.1908,0.0014784,0.00023328,0.0,0 STARLINK-4060,1 53267U 22086AB  23079.30717310  .00023328  00000-0  14784-2 0  9998,2 53267  53.2174  26.5901 0001500 113.9242 246.1908 15.08853153 37210,6917.84,95.437,540.743,538.668,0.0
53267.0,STARLINK-4060,PAYLOAD,2023-03-21 05:37:43,15.08874392,0.0001491,53.2179,22.4276,124.0455,236.0679,0.0021709,0.00034464,0.0,0 STARLINK-4060,1 53267U 22086AB  23080.23452986  .00034464  00000-0  21709-2 0  9995,2 53267  53.2179  22.4276 0001491 124.0455 236.0679 15.08874392 37179,6917.775,95.435,540.672,538.609,0.0
53267.0,STARLINK-4060,PAYLOAD,2023-03-22 03:53:10,15.08803995,0.0001342,53.218,18.2651,103.8219,256.2922,0.0015022,0.00023677,0.0,0 STARLINK-4060,1 53267U 22086AB  23081.16192411  .00023677  00000-0  15022-2 0  9997,2 53267  53.2180  18.2651 0001342 103.8219 256.2922 15.08803995 37311,6917.99,95.44,540.784,538.927,0.0
53267.0,STARLINK-4060,PAYLOAD,2023-03-22 07:03:56,15.08814333,0.000129,53.218,17.6703,103.5403,256.5733,0.0016763,0.00026472,0.0,0 STARLINK-4060,1 53267U 22086AB  23081.29440614  .00026472  00000-0  16763-2 0  9991,2 53267  53.2180  17.6703 0001290 103.5403 256.5733 15.08814333 37519,6917.959,95.439,540.716,538.931,0.0
53267.0,STARLINK-4060,PAYLOAD,2023-03-23 02:08:33,15.08902877,0.0001325,53.2182,14.1035,109.2371,250.8765,0.0027708,0.00044162,0.0,0 STARLINK-4060,1 53267U 22086AB  23082.08927100  .00044162  00000-0  27708-2 0  9996,2 53267  53.2182  14.1035 0001325 109.2371 250.8765 15.08902877 37453,6917.688,95.434,540.47,538.637,0.0
53267.0,STARLINK-4060,PAYLOAD,2023-03-23 05:19:18,15.08914327,0.0001288,53.218,13.5079,109.4829,250.6303,0.0025193,0.00040117,0.0,0 STARLINK-4060,1 53267U 22086AB  23082.22174417  .00040117  00000-0  25193-2 0  9999,2 53267  53.2180  13.5079 0001288 109.4829 250.6303 15.08914327 37651,6917.653,95.433,540.409,538.627,0.0
53267.0,STARLINK-4060,PAYLOAD,2023-03-23 22:48:27,15.09023321,0.0001294,53.2181,10.2374,116.9372,243.1752,0.0045599,0.00073407,0.0,0 STARLINK-4060,1 53267U 22086AB  23082.95032051  .00073407  00000-0  45599-2 0  9996,2 53267  53.2181  10.2374 0001294 116.9372 243.1752 15.09023321 37760,6917.32,95.426,540.08,538.29,0.0
53267.0,STARLINK-4060,PAYLOAD,2023-03-24 01:59:19,15.08901204,0.0001283,53.2182,9.6434,94.9105,265.2034,0.004245,0.00068038,0.0,0 STARLINK-4060,1 53267U 22086AB  23083.08285984  .00068038  00000-0  42450-2 0  9993,2 53267  53.2182   9.6434 0001283  94.9105 265.2034 15.08901204 37602,6917.693,95.434,540.446,538.671,0.0
53267.0,STARLINK-4060,PAYLOAD,2023-03-24 22:39:18,15.08906738,0.000144,53.2174,5.7768,129.0821,231.03,0.0022682,0.00036062,0.0,0 STARLINK-4060,1 53267U 22086AB  23083.94396130  .00036062  00000-0  22682-2 0  9991,2 53267  53.2174   5.7768 0001440 129.0821 231.0300 15.08906738 37918,6917.676,95.433,540.538,538.545,0.0
53267.0,STARLINK-4060,PAYLOAD,2023-03-25 01:50:04,15.0888961,9.07e-05,53.2174,5.1823,64.7273,295.3813,0.0013113,0.00020671,0.0,0 STARLINK-4060,1 53267U 22086AB  23084.07643927  .00020671  00000-0  13113-2 0  9993,2 53267  53.2174   5.1823 0000907  64.7273 295.3813 15.08889610 37750,6917.729,95.434,540.221,538.966,0.0
53267.0,STARLINK-4060,PAYLOAD,2023-03-25 06:36:12,15.08905539,8.8e-05,53.2172,4.29,65.8187,294.2897,0.0015493,0.00024499,0.0,0 STARLINK-4060,1 53267U 22086AB  23084.27515039  .00024499  00000-0  15493-2 0  9992,2 53267  53.2172   4.2900 0000880  65.8187 294.2897 15.08905539 37782,6917.68,95.433,540.154,538.936,0.0
53267.0,STARLINK-4060,PAYLOAD,2023-03-25 22:30:06,15.08803958,0.0001088,53.2175,1.318,73.5624,286.5487,0.00065278,0.00010106,0.0,0 STARLINK-4060,1 53267U 22086AB  23084.93757694  .00010106  00000-0  65278-3 0  9997,2 53267  53.2175   1.3180 0001088  73.5624 286.5487 15.08803958 38069,6917.991,95.44,540.608,539.103,0.0
53267.0,STARLINK-4060,PAYLOAD,2023-03-26 04:51:39,15.08799912,0.0001174,53.2166,0.1271,82.5115,277.601,0.001186,0.00018617,0.0,0 STARLINK-4060,1 53267U 22086AB  23085.20254395  .00018617  00000-0  11860-2 0  9990,2 53267  53.2166   0.1271 0001174  82.5115 277.6010 15.08799912 37929,6918.003,95.44,540.68,539.056,0.0
53267.0,STARLINK-4060,PAYLOAD,2023-03-26 06:27:02,15.08810969,0.0001014,53.217,359.8307,83.3618,276.749,0.0015866,0.00025033,0.0,0 STARLINK-4060,1 53267U 22086AB  23085.26878413  .00025033  00000-0  15866-2 0  9999,2 53267  53.2170 359.8307 0001014  83.3618 276.7490 15.08810969 37937,6917.969,95.439,540.536,539.133,0.0
